[{"OBJECT_NAME":"STARLINK-5266","OBJECT_ID":"2023-010X","EPOCH":"2026-03-09T22:13:01.934112","MEAN_MOTION":14.98328896,"ECCENTRICITY":0.00029721,"INCLINATION":70.0019,"RA_OF_ASC_NODE":23.8984,"ARG_OF_PERICENTER":268.2636,"MEAN_ANOMALY":91.8183,"EPHEMERIS_TYPE":0,"CLASSIFICATION_TYPE":"U","NORAD_CAT_ID":55290,"ELEMENT_SET_NO":999,"REV_AT_EPOCH":17330,"BSTAR":-1.0130145e-5,"MEAN_MOTION_DOT":-2.14e-6,"MEAN_MOTION_DDOT":0},{"OBJECT_NAME":"CZ-6A DEB","OBJECT_ID":"2022-151BB","EPOCH":"2026-03-09T17:16:48.853632","MEAN_MOTION":14.94828895,"ECCENTRICITY":0.00449007,"INCLINATION":98.6423,"RA_OF_ASC_NODE":141.5544,"ARG_OF_PERICENTER":201.6501,"MEAN_ANOMALY":158.2819,"EPHEMERIS_TYPE":0,"CLASSIFICATION_TYPE":"U","NORAD_CAT_ID":54308,"ELEMENT_SET_NO":999,"REV_AT_EPOCH":17599,"BSTAR":0.0053055882,"MEAN_MOTION_DOT":0.00059316,"MEAN_MOTION_DDOT":0}]
